TIANYAN 01              
1 44881U 19093C   24070.56811998  .00001267  00000+0  16084-3 0  9994
2 44881  97.8346 149.2590 0013189 286.8918  73.0850 14.83348636228425
RS-44 & BREEZE-KM R/B   
1 44909U 19096E   24070.52478242  .00000027  00000+0  73402-4 0  9996
2 44909  82.5257 170.3250 0216286 281.9225  75.7702 12.79727230196351
BY70-2                  
1 45857U 20042B   24070.53585831  .00049920  00000+0  30648-2 0  9994
2 45857  97.9125 159.4546 0008479 201.8093 158.2775 15.09884898199575
SALSAT                  
1 46495U 20068K   24070.41859594  .00007280  00000+0  43507-3 0  9990
2 46495  97.8059  27.4359 0012492 294.4808  65.5118 15.11333720189382
RADFXSAT-2 (AO-109)     
1 47311U 21002C   24070.38884901  .00178483  00000+0  11428-2 0  9993
2 47311  60.6662  91.7224 0025343  71.0433 289.3422 15.75001394175743
UVSQ-SAT                
1 47438U 21006AB  24070.43663837  .00030941  00000+0  83338-3 0  9992
2 47438  97.3426 130.3184 0007436 201.8547 158.2382 15.37758236173519
LEDSAT                  
1 49069U 21073D   24070.42518946  .00012999  00000+0  58758-3 0  9998
2 49069  97.4480 142.4703 0019708 270.0299  89.8678 15.20896147141428
XW-3 (CAS-9)            
1 50466U 21131B   24070.56490563  .00000807  00000+0  27348-3 0  9991
2 50466  98.5304 156.1135 0005110  69.7269 290.4468 14.39408671115812
TEVEL-3                 
1 50988U 22002E   24070.45646360  .00055325  00000+0  11725-2 0  9990
2 50988  97.3932 143.2115 0003677   0.4734 359.6518 15.44898041119713
TEVEL-8                 
1 50989U 22002F   24070.55430433  .00058140  00000+0  12360-2 0  9998
2 50989  97.3951 143.3969 0003707 356.8396   3.2828 15.44793051119721
TEVEL-5                 
1 50998U 22002Q   24070.56600959  .00064774  00000+0  12679-2 0  9994
2 50998  97.3924 144.2152 0004277 346.6230  13.4906 15.47179759119795
TEVEL-6                 
1 50999U 22002R   24070.56716380  .00064596  00000+0  12670-2 0  9994
2 50999  97.3922 144.1987 0004256 346.4814  13.6321 15.47120972119798
TEVEL-1                 
1 51013U 22002AF  24070.54276586  .00059084  00000+0  12558-2 0  9990
2 51013  97.3925 143.1862 0003593 358.2565   1.8670 15.44795136119723
TEVEL-7                 
1 51062U 22002CG  24070.54819765  .00059732  00000+0  12660-2 0  9990
2 51062  97.3945 143.3626 0003711 356.8929   3.2296 15.44875009119727
TEVEL-4                 
1 51063U 22002CH  24070.57214141  .00055766  00000+0  11907-2 0  9997
2 51063  97.3942 143.3222 0003656 357.4289   2.6940 15.44675146119720
TEVEL-2                 
1 51069U 22002CP  24070.45603677  .00055470  00000+0  11744-2 0  9997
2 51069  97.3931 143.1780 0003621 359.5409   0.5836 15.44926701119716
GREENCUBE               
1 53106U 22080B   24069.66819003 -.00000003  00000+0  00000+0 0  9993
2 53106  70.1332 227.0918 0008274 126.4127 233.7296  6.42557646 38879
MONITOR-1 (RS32S)       
1 53374U 22096E   24070.54254649  .00584114  14368-3  14817-2 0  9994
2 53374  97.3762 350.4795 0006676 118.5221 241.6728 15.95448973 89211
KUZBASS-300 (RS34S)     
1 53375U 22096F   24070.57058718  .00116390  00000+0  11760-2 0  9992
2 53375  97.3935 347.3078 0004016  98.4759 261.6956 15.64943824 88991
UTMN (RS23S)            
1 53376U 22096G   24070.59365064  .00136439  00000+0  11888-2 0  9997
2 53376  97.3912 347.9973 0004119  93.5535 266.6198 15.68573702 89047
MIET-AIS (RS28S)        
1 53377U 22096H   24070.59110451  .00086584  00000+0  10418-2 0  9999
2 53377  97.3962 346.7228 0003580  93.1600 267.0066 15.60542774 88958
KAI-1 (RS26S)           
1 53378U 22096J   24070.59504037  .00048949  00000+0  78213-3 0  9998
2 53378  97.4006 345.2892 0002735  77.7861 282.3698 15.53026654 88854
ISOI (RS19S)            
1 53381U 22096M   24070.60431674  .00094955  00000+0  10764-2 0  9994
2 53381  97.3981 347.4503 0004657 105.6014 254.5758 15.62064012 89004
CUBESX-HSE-2 (RS21S)    
1 53383U 22096P   24070.57461360  .00129692  00000+0  11583-2 0  9994
2 53383  97.3919 348.2026 0005951 110.4321 249.7580 15.67975125 89054
SIREN (RS30S)           
1 53384U 22096Q   24070.57926869  .00068684  00000+0  92705-3 0  9994
2 53384  97.3983 346.4602 0004688 112.1535 248.0218 15.57551804 88937
CAS-5A (FO-118)         
1 54684U 22167C   24070.57730680  .00021590  00000+0  89294-3 0  9995
2 54684  97.5908 213.6351 0011253 131.3422 228.8785 15.23930167 69255
STRATOSAT-TK 1 (RS52S)  
1 57167U 23091B   24070.58810280  .00010570  00000+0  67121-3 0  9998
2 57167  97.6259 124.1287 0017581  97.8072 262.5153 15.08921470 38671
UMKA 1 (RS40S)          
1 57172U 23091G   24070.58483304  .00004470  00000+0  30908-3 0  9992
2 57172  97.6258 123.6717 0018753  97.6605 262.6752 15.06081624 38649
CUBESX-HSE 3 (RS42S)    
1 57178U 23091N   24070.60987053  .00006814  00000+0  45892-3 0  9993
2 57178  97.6303 123.9150 0019471  92.7725 267.5732 15.06863919 38655
MONITOR-4 (RS57S)       
1 57182U 23091S   24070.57186311  .00006767  00000+0  45972-3 0  9998
2 57182  97.6277 123.7732 0019425  93.7634 266.5815 15.06541719 38644
MONITOR-2 (RS39S)       
1 57184U 23091U   24070.56261845  .00005135  00000+0  35175-3 0  9997
2 57184  97.6289 123.9546 0015776  87.8895 272.4138 15.06405942 38654
SVYATOBOR 1 (RS60S)     
1 57187U 23091X   24070.60172824  .00005912  00000+0  39335-3 0  9998
2 57187  97.6297 124.2146 0015704  85.9886 274.3136 15.07424578 38674
VIZARD-METEO (RS38S)    
1 57189U 23091Z   24070.56693709  .00008368  00000+0  54084-3 0  9991
2 57189  97.6282 124.3889 0014198  84.2978 275.9869 15.08386715 38687
NANOZOND 1 (RS49S)      
1 57190U 23091AA  24070.56816555  .00011078  00000+0  68490-3 0  9997
2 57190  97.6257 124.6073 0012629  89.5936 270.6740 15.09951333 38706
POLYTECH-UNIVERSE 3 (R*)
1 57191U 23091AB  24070.56104147  .00005247  00000+0  35976-3 0  9999
2 57191  97.6257 123.6949 0021309 103.7594 256.6007 15.06274636 38646
UTMN 2 (RS27S)          
1 57203U 23091AP  24070.59802033  .00006293  00000+0  41135-3 0  9991
2 57203  97.6287 124.3464 0014938  84.6694 275.6237 15.08062327 38685
ARCCUBE 1 (RS25S)       
1 57205U 23091AR  24070.59995567  .00011554  00000+0  70247-3 0  9990
2 57205  97.6237 124.6558 0013115  90.9110 269.3623 15.10546120 38712
KUZGTU 1 (RS47S)        
1 57217U 23091AV  24070.61142329  .00006737  00000+0  45474-3 0  9997
2 57217  97.6277 123.8308 0019359  93.8913 266.4528 15.06788669 38658
HADES-D (SO-121)        
1 58567U 23174CY  24070.14098608  .00031732  00000+0  14762-2 0  9994
2 58567  97.4660 146.3152 0014570 214.9753 145.0526 15.19790809 18691
